[{"OBJECT_NAME":"GEESAT-1 04","OBJECT_ID":"2022-058D","EPOCH":"2026-03-09T22:25:22.027008","MEAN_MOTION":14.810114,"ECCENTRICITY":0.00100038,"INCLINATION":50.0041,"RA_OF_ASC_NODE":301.1948,"ARG_OF_PERICENTER":127.9517,"MEAN_ANOMALY":232.2326,"EPHEMERIS_TYPE":0,"CLASSIFICATION_TYPE":"U","NORAD_CAT_ID":52788,"ELEMENT_SET_NO":999,"REV_AT_EPOCH":20521,"BSTAR":0.00036323444,"MEAN_MOTION_DOT":2.624e-5,"MEAN_MOTION_DDOT":0},{"OBJECT_NAME":"KUIPER-00119","OBJECT_ID":"2025-171Z","EPOCH":"2026-03-09T13:41:23.129376","MEAN_MOTION":14.80048396,"ECCENTRICITY":7.9e-5,"INCLINATION":51.8996,"RA_OF_ASC_NODE":163.6949,"ARG_OF_PERICENTER":154.2212,"MEAN_ANOMALY":205.8789,"EPHEMERIS_TYPE":0,"CLASSIFICATION_TYPE":"U","NORAD_CAT_ID":65155,"ELEMENT_SET_NO":999,"REV_AT_EPOCH":3279,"BSTAR":0.0007766,"MEAN_MOTION_DOT":5.72e-5,"MEAN_MOTION_DDOT":0}]
